[{"OBJECT_NAME":"STARLINK-6125","OBJECT_ID":"2023-090P","EPOCH":"2026-03-09T13:23:33.960480","MEAN_MOTION":15.02531354,"ECCENTRICITY":0.00012622,"INCLINATION":43.001,"RA_OF_ASC_NODE":275.3562,"ARG_OF_PERICENTER":268.8087,"MEAN_ANOMALY":91.261,"EPHEMERIS_TYPE":0,"CLASSIFICATION_TYPE":"U","NORAD_CAT_ID":57114,"ELEMENT_SET_NO":999,"REV_AT_EPOCH":15039,"BSTAR":-5.4744e-8,"MEAN_MOTION_DOT":-2.04e-6,"MEAN_MOTION_DDOT":0},{"OBJECT_NAME":"CZ-4B DEB","OBJECT_ID":"2008-053J","EPOCH":"2026-03-09T11:59:22.469568","MEAN_MOTION":15.1637526,"ECCENTRICITY":0.00601661,"INCLINATION":97.7872,"RA_OF_ASC_NODE":170.5072,"ARG_OF_PERICENTER":304.792,"MEAN_ANOMALY":54.7659,"EPHEMERIS_TYPE":0,"CLASSIFICATION_TYPE":"U","NORAD_CAT_ID":35573,"ELEMENT_SET_NO":999,"REV_AT_EPOCH":91868,"BSTAR":0.0017688276,"MEAN_MOTION_DOT":0.00036031,"MEAN_MOTION_DDOT":0}]
